{
  "type": "FeatureCollection",
  "features": [
    {
      "type": "Feature",
      "properties": {
        "norad_id": 66428,
        "name": "STARLINK-35610",
        "group": "last-30-days",
        "lat": -6.329948071645796,
        "lon": -75.65675576918278,
        "alt_km": 415.6164068651615,
        "timestamp": "2025-12-04T03:47:53.335241+00:00",
        "meta_object_name": "STARLINK-35610",
        "meta_object_id": "2025-259G",
        "meta_epoch": "2025-12-03T20:00:01.999008",
        "meta_mean_motion": 15.50591624,
        "meta_eccentricity": 0.0001516,
        "meta_inclination": 43.0003,
        "meta_ra_of_asc_node": 99.4073,
        "meta_arg_of_pericenter": 277.4463,
        "meta_mean_anomaly": 255.9968,
        "meta_ephemeris_type": 0,
        "meta_classification_type": "U",
        "meta_norad_cat_id": 66428,
        "meta_element_set_no": 999,
        "meta_rev_at_epoch": 484,
        "meta_bstar": -0.0004806,
        "meta_mean_motion_dot": -0.00028446,
        "meta_mean_motion_ddot": 0,
        "tle_line1": "1 66428U 25259G   25337.83335647 -.00028446  00000+0 -48060-3 0  9994",
        "tle_line2": "2 66428  43.0003  99.4073 0001516 277.4463 255.9968 15.50591624  4844"
      },
      "geometry": {
        "type": "Point",
        "coordinates": [
          -75.65675576918278,
          -6.329948071645796
        ]
      }
    },
    {
      "type": "Feature",
      "properties": {
        "norad_id": 66429,
        "name": "STARLINK-35533",
        "group": "last-30-days",
        "lat": -7.629890907373041,
        "lon": -74.23436729022988,
        "alt_km": 415.8752160986969,
        "timestamp": "2025-12-04T03:47:53.335251+00:00",
        "meta_object_name": "STARLINK-35533",
        "meta_object_id": "2025-259H",
        "meta_epoch": "2025-12-03T20:00:01.999008",
        "meta_mean_motion": 15.50613995,
        "meta_eccentricity": 0.0001463,
        "meta_inclination": 43.0003,
        "meta_ra_of_asc_node": 99.4013,
        "meta_arg_of_pericenter": 282.8845,
        "meta_mean_anomaly": 252.4781,
        "meta_ephemeris_type": 0,
        "meta_classification_type": "U",
        "meta_norad_cat_id": 66429,
        "meta_element_set_no": 999,
        "meta_rev_at_epoch": 484,
        "meta_bstar": -0.0014856,
        "meta_mean_motion_dot": -0.00086642,
        "meta_mean_motion_ddot": 0,
        "tle_line1": "1 66429U 25259H   25337.83335647 -.00086642  00000+0 -14856-2 0  9992",
        "tle_line2": "2 66429  43.0003  99.4013 0001463 282.8845 252.4781 15.50613995  4845"
      },
      "geometry": {
        "type": "Point",
        "coordinates": [
          -74.23436729022988,
          -7.629890907373041
        ]
      }
    },
    {
      "type": "Feature",
      "properties": {
        "norad_id": 66430,
        "name": "STARLINK-35470",
        "group": "last-30-days",
        "lat": -8.920600330773441,
        "lon": -72.8050432354711,
        "alt_km": 415.89581773527516,
        "timestamp": "2025-12-04T03:47:53.335261+00:00",
        "meta_object_name": "STARLINK-35470",
        "meta_object_id": "2025-259J",
        "meta_epoch": "2025-12-03T20:00:01.999008",
        "meta_mean_motion": 15.50611413,
        "meta_eccentricity": 0.0001437,
        "meta_inclination": 43.0004,
        "meta_ra_of_asc_node": 99.3986,
        "meta_arg_of_pericenter": 277.4713,
        "meta_mean_anomaly": 259.8101,
        "meta_ephemeris_type": 0,
        "meta_classification_type": "U",
        "meta_norad_cat_id": 66430,
        "meta_element_set_no": 999,
        "meta_rev_at_epoch": 484,
        "meta_bstar": -0.0014349,
        "meta_mean_motion_dot": -0.00083724,
        "meta_mean_motion_ddot": 0,
        "tle_line1": "1 66430U 25259J   25337.83335647 -.00083724  00000+0 -14349-2 0  9999",
        "tle_line2": "2 66430  43.0004  99.3986 0001437 277.4713 259.8101 15.50611413  4841"
      },
      "geometry": {
        "type": "Point",
        "coordinates": [
          -72.8050432354711,
          -8.920600330773441
        ]
      }
    },
    {
      "type": "Feature",
      "properties": {
        "norad_id": 66431,
        "name": "STARLINK-35439",
        "group": "last-30-days",
        "lat": -10.208454775126057,
        "lon": -71.366452706134,
        "alt_km": 415.9402936749211,
        "timestamp": "2025-12-04T03:47:53.335270+00:00",
        "meta_object_name": "STARLINK-35439",
        "meta_object_id": "2025-259K",
        "meta_epoch": "2025-12-03T20:00:01.999008",
        "meta_mean_motion": 15.50619707,
        "meta_eccentricity": 0.000142,
        "meta_inclination": 43.0004,
        "meta_ra_of_asc_node": 99.392,
        "meta_arg_of_pericenter": 273.1391,
        "meta_mean_anomaly": 266.0599,
        "meta_ephemeris_type": 0,
        "meta_classification_type": "U",
        "meta_norad_cat_id": 66431,
        "meta_element_set_no": 999,
        "meta_rev_at_epoch": 484,
        "meta_bstar": -0.0017213,
        "meta_mean_motion_dot": -0.00100185,
        "meta_mean_motion_ddot": 0,
        "tle_line1": "1 66431U 25259K   25337.83335647 -.00100185  00000+0 -17213-2 0  9994",
        "tle_line2": "2 66431  43.0004  99.3920 0001420 273.1391 266.0599 15.50619707  4842"
      },
      "geometry": {
        "type": "Point",
        "coordinates": [
          -71.366452706134,
          -10.208454775126057
        ]
      }
    },
    {
      "type": "Feature",
      "properties": {
        "norad_id": 66432,
        "name": "STARLINK-35446",
        "group": "last-30-days",
        "lat": -11.391970513204939,
        "lon": -70.02742635320665,
        "alt_km": 416.51628818719746,
        "timestamp": "2025-12-04T03:47:53.335281+00:00",
        "meta_object_name": "STARLINK-35446",
        "meta_object_id": "2025-259L",
        "meta_epoch": "2025-12-03T20:00:01.999008",
        "meta_mean_motion": 15.50492718,
        "meta_eccentricity": 0.0001845,
        "meta_inclination": 43.0003,
        "meta_ra_of_asc_node": 99.386,
        "meta_arg_of_pericenter": 302.3998,
        "meta_mean_anomaly": 238.6333,
        "meta_ephemeris_type": 0,
        "meta_classification_type": "U",
        "meta_norad_cat_id": 66432,
        "meta_element_set_no": 999,
        "meta_rev_at_epoch": 484,
        "meta_bstar": 0.0024381,
        "meta_mean_motion_dot": 0.00144926,
        "meta_mean_motion_ddot": 0,
        "tle_line1": "1 66432U 25259L   25337.83335647  .00144926  00000+0  24381-2 0  9998",
        "tle_line2": "2 66432  43.0003  99.3860 0001845 302.3998 238.6333 15.50492718  4846"
      },
      "geometry": {
        "type": "Point",
        "coordinates": [
          -70.02742635320665,
          -11.391970513204939
        ]
      }
    },
    {
      "type": "Feature",
      "properties": {
        "norad_id": 66433,
        "name": "STARLINK-35457",
        "group": "last-30-days",
        "lat": -12.755090182532017,
        "lon": -68.45842656231422,
        "alt_km": 416.4080756868425,
        "timestamp": "2025-12-04T03:47:53.335294+00:00",
        "meta_object_name": "STARLINK-35457",
        "meta_object_id": "2025-259M",
        "meta_epoch": "2025-12-03T20:00:01.999008",
        "meta_mean_motion": 15.50621101,
        "meta_eccentricity": 0.0001476,
        "meta_inclination": 43.0003,
        "meta_ra_of_asc_node": 99.3833,
        "meta_arg_of_pericenter": 289.1914,
        "meta_mean_anomaly": 253.8347,
        "meta_ephemeris_type": 0,
        "meta_classification_type": "U",
        "meta_norad_cat_id": 66433,
        "meta_element_set_no": 999,
        "meta_rev_at_epoch": 484,
        "meta_bstar": -0.0016547,
        "meta_mean_motion_dot": -0.00096375,
        "meta_mean_motion_ddot": 0,
        "tle_line1": "1 66433U 25259M   25337.83335647 -.00096375  00000+0 -16547-2 0  9990",
        "tle_line2": "2 66433  43.0003  99.3833 0001476 289.1914 253.8347 15.50621101  4841"
      },
      "geometry": {
        "type": "Point",
        "coordinates": [
          -68.45842656231422,
          -12.755090182532017
        ]
      }
    },
    {
      "type": "Feature",
      "properties": {
        "norad_id": 66434,
        "name": "STARLINK-35389",
        "group": "last-30-days",
        "lat": -14.01723226789274,
        "lon": -66.98260737709764,
        "alt_km": 416.252186122063,
        "timestamp": "2025-12-04T03:47:53.335305+00:00",
        "meta_object_name": "STARLINK-35389",
        "meta_object_id": "2025-259N",
        "meta_epoch": "2025-12-03T20:00:01.999008",
        "meta_mean_motion": 15.50613012,
        "meta_eccentricity": 0.0001543,
        "meta_inclination": 43.0004,
        "meta_ra_of_asc_node": 99.3788,
        "meta_arg_of_pericenter": 275.4185,
        "meta_mean_anomaly": 269.5287,
        "meta_ephemeris_type": 0,
        "meta_classification_type": "U",
        "meta_norad_cat_id": 66434,
        "meta_element_set_no": 999,
        "meta_rev_at_epoch": 484,
        "meta_bstar": -0.0014586,
        "meta_mean_motion_dot": -0.00085089,
        "meta_mean_motion_ddot": 0,
        "tle_line1": "1 66434U 25259N   25337.83335647 -.00085089  00000+0 -14586-2 0  9992",
        "tle_line2": "2 66434  43.0004  99.3788 0001543 275.4185 269.5287 15.50613012  4844"
      },
      "geometry": {
        "type": "Point",
        "coordinates": [
          -66.98260737709764,
          -14.01723226789274
        ]
      }
    }
  ]
}